H1 CPF  1  DGF 2022 09 28 23  7711 larets     NONE      
H2   304206 5557    27944 2022 09 14 00 00 00 2022 09 21 00 00 00    30 1 1  0 0 0
H5  0.0650
H9
10 0 59837  14400.000000  0       3416891.243      -2670513.760       5557996.598
10 0 59837  14430.000000  0       3240781.103      -2611047.588       5690111.185
10 0 59837  14460.000000  0       3061645.982      -2548151.238       5816401.780
10 0 59837  14490.000000  0       2879683.367      -2481876.293       5936740.219
10 0 59837  14520.000000  0       2695093.316      -2412278.615       6051004.481
10 0 59837  14550.000000  0       2508078.233      -2339418.294       6159078.810
10 0 59837  14580.000000  0       2318842.642      -2263359.599       6260853.820
10 0 59837  14610.000000  0       2127592.958      -2184170.915       6356226.604
10 0 59837  14640.000000  0       1934537.257      -2101924.677       6445100.829
10 0 59837  14670.000000  0       1739885.050      -2016697.307       6527386.830
10 0 59837  14700.000000  0       1543847.043      -1928569.134       6603001.697
10 0 59837  14730.000000  0       1346634.909      -1837624.318       6671869.342
10 0 59837  14760.000000  0       1148461.060      -1743950.763       6733920.576
10 0 59837  14790.000000  0        949538.411      -1647640.033       6789093.166
10 0 59837  14820.000000  0        750080.156      -1548787.257       6837331.894
10 0 59837  14850.000000  0        550299.536      -1447491.038       6878588.610
10 0 59837  14880.000000  0        350409.611      -1343853.344       6912822.266
10 0 59837  14910.000000  0        150623.031      -1237979.410       6939998.961
10 0 59837  14940.000000  0        -48848.189      -1129977.622       6960091.959
10 0 59837  14970.000000  0       -247792.893      -1019959.414       6973081.714
10 0 59837  15000.000000  0       -446001.004       -908039.146       6978955.884
10 0 59837  15030.000000  0       -643263.744       -794333.990       6977709.348
10 0 59837  15060.000000  0       -839373.858       -678963.798       6969344.198
10 0 59837  15090.000000  0      -1034125.831       -562050.983       6953869.739
10 0 59837  15120.000000  0      -1227316.096       -443720.382       6931302.473
10 0 59837  15150.000000  0      -1418743.253       -324099.128       6901666.083
10 0 59837  15180.000000  0      -1608208.270       -203316.508       6864991.404
10 0 59837  15210.000000  0      -1795514.693        -81503.830       6821316.396
10 0 59837  15240.000000  0      -1980468.850         41205.727       6770686.101
10 0 59837  15270.000000  0      -2162880.046        164677.252       6713152.600
10 0 59837  15300.000000  0      -2342560.768        288774.253       6648774.961
10 0 59837  15330.000000  0      -2519326.867        413358.808       6577619.174
10 0 59837  15360.000000  0      -2692997.753        538291.715       6499758.093
10 0 59837  15390.000000  0      -2863396.580        663432.645       6415271.359
10 0 59837  15420.000000  0      -3030350.422        788640.302       6324245.325
10 0 59837  15450.000000  0      -3193690.453        913772.581       6226772.971
10 0 59837  15480.000000  0      -3353252.124       1038686.727       6122953.812
10 0 59837  15510.000000  0      -3508875.323       1163239.496       6012893.800
10 0 59837  15540.000000  0      -3660404.544       1287287.322       5896705.217
10 0 59837  15570.000000  0      -3807689.043       1410686.476       5774506.568
10 0 59837  15600.000000  0      -3950582.988       1533293.237       5646422.466
10 0 59837  15630.000000  0      -4088945.616       1654964.055       5512583.502
10 0 59837  15660.000000  0      -4222641.368       1775555.723       5373126.121
10 0 59837  15690.000000  0      -4351540.028       1894925.540       5228192.483
10 0 59837  15720.000000  0      -4475516.855       2012931.484       5077930.320
10 0 59837  15750.000000  0      -4594452.705       2129432.380       4922492.788
10 0 59837  15780.000000  0      -4708234.148       2244288.064       4762038.313
10 0 59837  15810.000000  0      -4816753.583       2357359.557       4596730.430
10 0 59837  15840.000000  0      -4919909.336       2468509.227       4426737.623
10 0 59837  15870.000000  0      -5017605.768       2577600.959       4252233.151
10 0 59837  15900.000000  0      -5109753.359       2684500.315       4073394.874
10 0 59837  15930.000000  0      -5196268.800       2789074.705       3890405.076
10 0 59837  15960.000000  0      -5277075.066       2891193.543       3703450.276
10 0 59837  15990.000000  0      -5352101.489       2990728.417       3512721.042
10 0 59837  16020.000000  0      -5421283.825       3087553.241       3318411.797
10 0 59837  16050.000000  0      -5484564.308       3181544.418       3120720.620
10 0 59837  16080.000000  0      -5541891.702       3272580.993       2919849.048
10 0 59837  16110.000000  0      -5593221.347       3360544.810       2716001.864
10 0 59837  16140.000000  0      -5638515.194       3445320.662       2509386.893
10 0 59837  16170.000000  0      -5677741.831       3526796.442       2300214.779
10 0 59837  16200.000000  0      -5710876.504       3604863.285       2088698.771
10 0 59837  16230.000000  0      -5737901.126       3679415.712       1875054.502
10 0 59837  16260.000000  0      -5758804.289       3750351.764       1659499.764
10 0 59837  16290.000000  0      -5773581.252       3817573.137       1442254.277
10 0 59837  16320.000000  0      -5782233.933       3880985.310       1223539.465
10 0 59837  16350.000000  0      -5784770.884       3940497.673       1003578.227
10 0 59837  16380.000000  0      -5781207.267       3996023.644        782594.707
10 0 59837  16410.000000  0      -5771564.823       4047480.791        560814.066
10 0 59837  16440.000000  0      -5755871.833       4094790.943        338462.242
10 0 59837  16470.000000  0      -5734163.066       4137880.298        115765.714
10 0 59837  16500.000000  0      -5706479.721       4176679.524       -107048.730
10 0 59837  16530.000000  0      -5672869.367       4211123.854       -329754.232
10 0 59837  16560.000000  0      -5633385.868       4241153.185       -552124.090
10 0 59837  16590.000000  0      -5588089.312       4266712.164       -773932.006
10 0 59837  16620.000000  0      -5537045.921       4287750.271       -994952.312
10 0 59837  16650.000000  0      -5480327.960       4304221.891      -1214960.219
10 0 59837  16680.000000  0      -5418013.634       4316086.388      -1433732.039
10 0 59837  16710.000000  0      -5350186.980       4323308.163      -1651045.422
10 0 59837  16740.000000  0      -5276937.756       4325856.713      -1866679.582
10 0 59837  16770.000000  0      -5198361.320       4323706.681      -2080415.526
10 0 59837  16800.000000  0      -5114558.503       4316837.902      -2292036.274
10 0 59837  16830.000000  0      -5025635.481       4305235.445      -2501327.081
10 0 59837  16860.000000  0      -4931703.640       4288889.643      -2708075.658
10 0 59837  16890.000000  0      -4832879.427       4267796.124      -2912072.388
10 0 59837  16920.000000  0      -4729284.212       4241955.828      -3113110.537
10 0 59837  16950.000000  0      -4621044.124       4211375.024      -3310986.466
10 0 59837  16980.000000  0      -4508289.901       4176065.311      -3505499.828
10 0 59837  17010.000000  0      -4391156.725       4136043.628      -3696453.767
10 0 59837  17040.000000  0      -4269784.062       4091332.251      -3883655.115
10 0 59837  17070.000000  0      -4144315.490       4041958.781      -4066914.584
10 0 59837  17100.000000  0      -4014898.528       3987956.132      -4246046.957
10 0 59837  17130.000000  0      -3881684.452       3929362.508      -4420871.266
10 0 59837  17160.000000  0      -3744828.120       3866221.369      -4591210.968
10 0 59837  17190.000000  0      -3604487.788       3798581.404      -4756894.111
10 0 59837  17220.000000  0      -3460824.930       3726496.488      -4917753.503
10 0 59837  17250.000000  0      -3314004.052       3650025.642      -5073626.873
10 0 59837  17280.000000  0      -3164192.503       3569232.984      -5224357.028
10 0 59837  17310.000000  0      -3011560.286       3484187.674      -5369792.009
10 0 59837  17340.000000  0      -2856279.860       3394963.849      -5509785.230
10 0 59837  17370.000000  0      -2698525.948       3301640.564      -5644195.630
10 0 59837  17400.000000  0      -2538475.338       3204301.715      -5772887.798
10 0 59837  17430.000000  0      -2376306.685       3103035.959      -5895732.106
10 0 59837  17460.000000  0      -2212200.311       2997936.636      -6012604.832
10 0 59837  17490.000000  0      -2046338.006       2889101.678      -6123388.274
10 0 59837  17520.000000  0      -1878902.827       2776633.515      -6227970.861
10 0 59837  17550.000000  0      -1710078.901       2660638.976      -6326247.255
10 0 59837  17580.000000  0      -1540051.219       2541229.190      -6418118.451
10 0 59837  17610.000000  0      -1369005.443       2418519.478      -6503491.860
10 0 59837  17640.000000  0      -1197127.708       2292629.247      -6582281.406
10 0 59837  17670.000000  0      -1024604.420       2163681.872      -6654407.600
10 0 59837  17700.000000  0       -851622.058       2031804.580      -6719797.623
10 0 59837  17730.000000  0       -678366.974       1897128.317      -6778385.388
10 0 59837  17760.000000  0       -505025.199       1759787.627      -6830111.598
10 0 59837  17790.000000  0       -331782.249       1619920.513      -6874923.804
10 0 59837  17820.000000  0       -158822.936       1477668.311      -6912776.453
10 0 59837  17850.000000  0         13668.825       1333175.544      -6943630.938
10 0 59837  17880.000000  0        185510.209       1186589.787      -6967455.636
10 0 59837  17910.000000  0        356519.674       1038061.513      -6984225.940
10 0 59837  17940.000000  0        526517.148        887743.948      -6993924.291
10 0 59837  17970.000000  0        695324.219        735792.912      -6996540.188
99
